{
    "links": {
        "self": "http://www.neowsapp.com/rest/v1/neo/3035165?api_key=iIulBulltgU6a56xZRHN4H3l9WmuAYTsLGpBGhQ2"
    },
    "id": "3035165",
    "neo_reference_id": "3035165",
    "name": "(2000 EZ106)",
    "designation": "2000 EZ106",
    "nasa_jpl_url": "http://ssd.jpl.nasa.gov/sbdb.cgi?sstr=3035165",
    "absolute_magnitude_h": 20.5,
    "estimated_diameter": {
        "kilometers": {
            "estimated_diameter_min": 0.2111324448,
            "estimated_diameter_max": 0.4721064988
        },
        "meters": {
            "estimated_diameter_min": 211.1324447897,
            "estimated_diameter_max": 472.1064988055
        },
        "miles": {
            "estimated_diameter_min": 0.1311915784,
            "estimated_diameter_max": 0.2933532873
        },
        "feet": {
            "estimated_diameter_min": 692.6917701639,
            "estimated_diameter_max": 1548.9058855411
        }
    },
    "is_potentially_hazardous_asteroid": false,
    "close_approach_data": [
        {
            "close_approach_date": "2000-03-21",
            "close_approach_date_full": "2000-Mar-21 22:57",
            "epoch_date_close_approach": 953679420000,
            "relative_velocity": {
                "kilometers_per_second": "22.482754725",
                "kilometers_per_hour": "80937.9170099701",
                "miles_per_hour": "50291.6740443339"
            },
            "miss_distance": {
                "astronomical": "0.0686215191",
                "lunar": "26.6937709299",
                "kilometers": "10265633.093524317",
                "miles": "6378768.6168848946"
            },
            "orbiting_body": "Earth"
        }
    ],
    "orbital_data": {
        "orbit_id": "11",
        "orbit_determination_date": "2017-04-06 09:17:03",
        "first_observation_date": "2000-03-12",
        "last_observation_date": "2000-03-26",
        "data_arc_in_days": 14,
        "observations_used": 37,
        "orbit_uncertainty": "8",
        "minimum_orbit_intersection": ".06417",
        "jupiter_tisserand_invariant": "6.181",
        "epoch_osculation": "2451623.5",
        "eccentricity": ".4467833370779662",
        "semi_major_axis": ".9285064813118903",
        "inclination": "40.23766327817313",
        "ascending_node_longitude": "358.5287617741906",
        "orbital_period": "326.7953259277709",
        "perihelion_distance": ".5136652570928437",
        "perihelion_argument": "313.9225850283025",
        "aphelion_distance": "1.343347705530937",
        "perihelion_time": "2451701.118849222232",
        "mean_anomaly": "274.4945367848391",
        "mean_motion": "1.101606943055141",
        "equinox": "J2000",
        "orbit_class": {
            "orbit_class_type": "ATE",
            "orbit_class_description": "Near-Earth asteroid orbits similar to that of 2062 Aten",
            "orbit_class_range": "a (semi-major axis) < 1.0 AU; q (perihelion) > 0.983 AU"
        }
    },
    "is_sentry_object": false
}